{"type": "FeatureCollection", "features": [{"type": "Feature", "properties": {"norad_id": 50032, "name": "COSMOS 1408 DEB", "group": "cosmos-1408-debris", "lat": -72.4291246357435, "lon": 35.049175705171976, "alt_km": 433.8468786793119, "timestamp": "2025-12-11T20:41:15.351560+00:00", "meta": {"OBJECT_NAME": "COSMOS 1408 DEB", "OBJECT_ID": "1982-092RU", "EPOCH": "2025-12-11T11:41:07.563840", "MEAN_MOTION": 15.4567484, "ECCENTRICITY": 0.001513, "INCLINATION": 82.5641, "RA_OF_ASC_NODE": 59.7927, "ARG_OF_PERICENTER": 213.362, "MEAN_ANOMALY": 146.6677, "EPHEMERIS_TYPE": 0, "CLASSIFICATION_TYPE": "U", "NORAD_CAT_ID": 50032, "ELEMENT_SET_NO": 999, "REV_AT_EPOCH": 22584, "BSTAR": 0.00017719213, "MEAN_MOTION_DOT": 8.621e-05, "MEAN_MOTION_DDOT": 0}, "tle": {"line1": "1 50032U 82092RU  25345.48689310  .00008621  00000+0  17719-3 0  9993", "line2": "2 50032  82.5641  59.7927 0015130 213.3620 146.6677 15.45674840225846"}}, "geometry": {"type": "Point", "coordinates": [35.049175705171976, -72.4291246357435]}}, {"type": "Feature", "properties": {"norad_id": 50058, "name": "COSMOS 1408 DEB", "group": "cosmos-1408-debris", "lat": 68.24822597741262, "lon": 89.23539683095292, "alt_km": 360.12088014629444, "timestamp": "2025-12-11T20:41:15.351580+00:00", "meta": {"OBJECT_NAME": "COSMOS 1408 DEB", "OBJECT_ID": "1982-092SW", "EPOCH": "2025-12-11T06:34:19.152192", "MEAN_MOTION": 15.63964775, "ECCENTRICITY": 0.00160129, "INCLINATION": 82.6138, "RA_OF_ASC_NODE": 70.8772, "ARG_OF_PERICENTER": 102.2436, "MEAN_ANOMALY": 258.0617, "EPHEMERIS_TYPE": 0, "CLASSIFICATION_TYPE": "U", "NORAD_CAT_ID": 50058, "ELEMENT_SET_NO": 999, "REV_AT_EPOCH": 22781, "BSTAR": 0.00053909325, "MEAN_MOTION_DOT": 0.00051314, "MEAN_MOTION_DDOT": 0}, "tle": {"line1": "1 50058U 82092SW  25345.27383278  .00051314  00000+0  53909-3 0  9990", "line2": "2 50058  82.6138  70.8772 0016012 102.2436 258.0617 15.63964775227819"}}, "geometry": {"type": "Point", "coordinates": [89.23539683095292, 68.24822597741262]}}, {"type": "Feature", "properties": {"norad_id": 50404, "name": "COSMOS 1408 DEB", "group": "cosmos-1408-debris", "lat": -20.048342045958552, "lon": -146.93381748195836, "alt_km": 618.0553120067652, "timestamp": "2025-12-11T20:41:15.351593+00:00", "meta": {"OBJECT_NAME": "COSMOS 1408 DEB", "OBJECT_ID": "1982-092ADS", "EPOCH": "2025-12-11T01:44:16.772640", "MEAN_MOTION": 15.13391943, "ECCENTRICITY": 0.01726658, "INCLINATION": 82.2029, "RA_OF_ASC_NODE": 216.7405, "ARG_OF_PERICENTER": 204.633, "MEAN_ANOMALY": 154.6586, "EPHEMERIS_TYPE": 0, "CLASSIFICATION_TYPE": "U", "NORAD_CAT_ID": 50404, "ELEMENT_SET_NO": 999, "REV_AT_EPOCH": 21168, "BSTAR": 0.003930623, "MEAN_MOTION_DOT": 0.00102745, "MEAN_MOTION_DDOT": 0}, "tle": {"line1": "1 50404U 82092ADS 25345.07241635  .00102745  00000+0  39306-2 0  9992", "line2": "2 50404  82.2029 216.7405 0172665 204.6330 154.6586 15.13391943211680"}}, "geometry": {"type": "Point", "coordinates": [-146.93381748195836, -20.048342045958552]}}, {"type": "Feature", "properties": {"norad_id": 50621, "name": "COSMOS 1408 DEB", "group": "cosmos-1408-debris", "lat": 69.47591616058145, "lon": -125.3078524355449, "alt_km": 377.3457273088088, "timestamp": "2025-12-11T20:41:15.351605+00:00", "meta": {"OBJECT_NAME": "COSMOS 1408 DEB", "OBJECT_ID": "1982-092ALR", "EPOCH": "2025-12-11T12:30:20.156832", "MEAN_MOTION": 15.56564652, "ECCENTRICITY": 0.0028861, "INCLINATION": 82.57, "RA_OF_ASC_NODE": 75.4488, "ARG_OF_PERICENTER": 157.0202, "MEAN_ANOMALY": 203.2351, "EPHEMERIS_TYPE": 0, "CLASSIFICATION_TYPE": "U", "NORAD_CAT_ID": 50621, "ELEMENT_SET_NO": 999, "REV_AT_EPOCH": 22231, "BSTAR": 0.00065091593, "MEAN_MOTION_DOT": 0.00047317, "MEAN_MOTION_DDOT": 0}, "tle": {"line1": "1 50621U 82092ALR 25345.52106663  .00047317  00000+0  65092-3 0  9999", "line2": "2 50621  82.5700  75.4488 0028861 157.0202 203.2351 15.56564652222317"}}, "geometry": {"type": "Point", "coordinates": [-125.3078524355449, 69.47591616058145]}}]}